{"type":"FeatureCollection","features":[{"type":"Feature","properties":{"name":"Ofanto","source":"Natural Earth, rete idrografica moderna generalizzata"},"bbox":[15.128673,40.897976,16.200613,41.362494],"geometry":{"type":"MultiLineString","coordinates":[[[15.128673,40.898057],[15.144216,40.900458],[15.19337,40.899482],[15.204763,40.902289],[15.226329,40.910956],[15.237315,40.913845],[15.247325,40.91413],[15.341238,40.897976],[15.470714,40.901679],[15.489187,40.907294],[15.523692,40.924099],[15.536388,40.933173],[15.543956,40.943793],[15.554942,40.971544],[15.572032,40.997382],[15.57781,41.010932],[15.576101,41.026435],[15.55836,41.054999],[15.554617,41.069037],[15.561453,41.086005],[15.571056,41.096381],[15.583018,41.104438],[15.596202,41.109198],[15.75294,41.102607],[15.771007,41.104438],[15.849294,41.131415],[15.923513,41.173163],[15.948253,41.181708],[16.100841,41.295193],[16.128103,41.309882],[16.179942,41.322943],[16.200613,41.336615],[16.199718,41.362494]]]}}]}